OBJECT_NAME,OBJECT_ID,EPOCH,MEAN_MOTION,ECCENTRICITY,INCLINATION,RA_OF_ASC_NODE,ARG_OF_PERICENTER,MEAN_ANOMALY,EPHEMERIS_TYPE,CLASSIFICATION_TYPE,NORAD_CAT_ID,ELEMENT_SET_NO,REV_AT_EPOCH,BSTAR,MEAN_MOTION_DOT,MEAN_MOTION_DDOT
IONOSFERA-M 2,2024-199B,2026-06-17T22:21:08.175168,14.22757717,.00010152,98.7171,42.0063,39.3482,320.7769,0,U,61736,999,13093,.40117719E-4,.46E-6,0
PRSC-EO1,2025-012A,2026-06-17T23:35:22.256736,15.17617861,.00048281,97.4224,241.4275,248.6197,111.4522,0,U,62725,999,7831,.26243666E-3,.5213E-4,0
BIOMASS,2025-090A,2026-06-17T12:15:30.885696,14.67537521,.00013856,98.0740,355.8232,95.1769,264.9594,0,U,63772,999,6073,.86213135E-4,.441E-5,0
GOSAT-GW (IBUKI GW),2025-141A,2026-06-17T22:33:48.615264,14.67553615,.00014214,98.0569,106.2451,85.1629,274.9738,0,U,64694,999,5195,.14198179E-4,.33E-6,0
IONOSFERA-M 3,2025-155A,2026-06-17T22:47:34.759968,14.21486616,.0001066,98.6025,130.8355,155.3644,204.7585,0,U,64876,999,4651,.38240377E-4,.41E-6,0
IONOSFERA-M 4,2025-155B,2026-06-17T21:56:23.394624,14.21488770,.00010707,98.6030,130.7183,120.2050,239.9234,0,U,64877,999,4650,.38735315E-4,.42E-6,0
MICROCARB,2025-156A,2026-06-17T19:54:16.310016,14.72326092,.00149631,97.9832,245.9552,269.9967,89.9526,0,U,64899,999,4806,.7121379E-4,.401E-5,0
CO3D 3,2025-156B,2026-06-17T21:52:49.628928,15.20199870,.00014936,97.4331,247.5944,128.5492,231.5877,0,U,64900,999,4964,.16566985E-3,.352E-4,0
CO3D 4,2025-156C,2026-06-17T15:33:54.199872,15.20201715,.00001121,97.4333,247.3348,1.7438,358.3797,0,U,64901,999,4960,.13680842E-4,.229E-5,0
CO3D 2,2025-156D,2026-06-17T21:05:01.857408,15.20201851,.00014968,97.4328,247.4605,107.0014,253.1385,0,U,64902,999,4963,.16975605E-3,.3609E-4,0
CO3D 1,2025-156E,2026-06-17T21:05:15.035136,15.20201863,.00012725,97.4329,247.4608,108.9426,251.1948,0,U,64903,999,4963,.20257601E-3,.432E-4,0
PRSC-S1,2025-164A,2026-06-17T17:28:21.645120,15.06462716,.00065139,41.1310,284.7669,347.4331,12.6319,0,U,65055,999,4851,.26794687E-3,.3849E-4,0
SENTINEL-6B,2025-264A,2026-06-17T07:40:53.126112,12.80929950,.00080162,66.0395,134.9024,269.1832,90.8264,0,U,66514,999,2718,-.34173805E-4,-.69E-6,0
CAS500-3,2025-274F,2026-06-17T18:04:27.093504,14.88322100,.00067686,97.7445,96.7912,108.6905,251.5047,0,U,66655,999,3023,.11420388E-3,.1003E-4,0
CSG-3,2026-001A,2026-06-17T22:35:58.972128,14.82154268,.00013859,97.8888,352.5325,94.7709,265.3663,0,U,67304,999,2457,.36191614E-4,.236E-5,0
PRSC-E03,2026-092A,2026-06-17T18:50:00.047328,15.06670977,.00036018,38.0008,86.1566,9.2031,350.8796,0,U,68835,999,804,.1491545E-3,.2147E-4,0
CAS500-2,2026-100AK,2026-06-17T21:01:30.615456,15.20596874,.00106387,97.4073,66.7190,32.5506,327.6383,0,U,69013,999,691,.24332807E-3,.5271E-4,0
